GLOBALSTAR M067         
1 32263U 07048A   25208.63798289 -.00000066  00000+0  23562-3 0  9997
2 32263  51.9726 277.5722 0001261  89.8320  75.9942 12.40674733814501
GLOBALSTAR M070         
1 32264U 07048B   25208.60015003 -.00000099  00000+0  29221-4 0  9996
2 32264  51.9770   5.3887 0000774 106.7864 331.1236 12.62320442818775
GLOBALSTAR M066         
1 32265U 07048C   25208.43861633 -.00000048  00000+0  39530-3 0  9993
2 32265  51.9586 270.1465 0005108  67.0391 306.9424 12.30139828820251
GLOBALSTAR M068         
1 32266U 07048D   25208.38140345 -.00000116  00000+0 -68120-4 0  9993
2 32266  51.9863 179.7305 0000778 229.5466 295.2003 12.62826396822638
GLOBALSTAR M079         
1 37188U 10054A   25208.47204003 -.00000106  00000+0 -10574-4 0  9993
2 37188  52.0057  17.1522 0000984  73.2785 304.8498 12.62265520681540
GLOBALSTAR M074         
1 37189U 10054B   25208.58013002 -.00000108  00000+0 -23798-4 0  9997
2 37189  52.0034  16.1415 0000978  93.9604 293.9691 12.62266752682168
GLOBALSTAR M077         
1 37191U 10054D   25208.52500006 -.00000090  00000+0  77950-4 0  9997
2 37191  52.0094 333.3515 0000780 105.4789 333.2671 12.62268941682243
